[
    {
        "Altitude(m)": 576910.8169226147,
        "Argument of Periapsis(deg)": -0.007534386927657468,
        "Eccentricity": 0.0,
        "Inclination(deg)": 97.0,
        "Latitude(deg)": 82.15442593053125,
        "Longitude(deg)": -103.16344429930005,
        "Mean Anomaly(deg)": 86.36684775639584,
        "RAAN(deg)": 60.00198235120617,
        "Satellite Name": "Starlink Shell 3 1712",
        "Satellite Number": 1712,
        "Semi-Major Axis(m)": 6938478.169268562,
        "Time(s)": 190
    },
    {
        "Altitude(m)": 576928.833884197,
        "Argument of Periapsis(deg)": -0.007930933608060494,
        "Eccentricity": 0.0,
        "Inclination(deg)": 97.0,
        "Latitude(deg)": 82.42062598038733,
        "Longitude(deg)": -107.39978461404739,
        "Mean Anomaly(deg)": 86.99232395410087,
        "RAAN(deg)": 60.00208668548019,
        "Satellite Name": "Starlink Shell 3 1712",
        "Satellite Number": 1712,
        "Semi-Major Axis(m)": 6938478.169268562,
        "Time(s)": 200
    },
    {
        "Altitude(m)": 576943.4944421126,
        "Argument of Periapsis(deg)": -0.008327480288463517,
        "Eccentricity": 0.0,
        "Inclination(deg)": 97.0,
        "Latitude(deg)": 82.64391076971481,
        "Longitude(deg)": -111.91404027395541,
        "Mean Anomaly(deg)": 87.61780015180592,
        "RAAN(deg)": 60.00219101975417,
        "Satellite Name": "Starlink Shell 3 1712",
        "Satellite Number": 1712,
        "Semi-Major Axis(m)": 6938478.169268562,
        "Time(s)": 210
    },
    {
        "Altitude(m)": 576954.7903729639,
        "Argument of Periapsis(deg)": -0.008724026968866542,
        "Eccentricity": 0.0,
        "Inclination(deg)": 97.0,
        "Latitude(deg)": 82.82027769384105,
        "Longitude(deg)": -116.6763394782054,
        "Mean Anomaly(deg)": 88.24327634951095,
        "RAAN(deg)": 60.00229535402819,
        "Satellite Name": "Starlink Shell 3 1712",
        "Satellite Number": 1712,
        "Semi-Major Axis(m)": 6938478.169268562,
        "Time(s)": 220
    },
    {
        "Altitude(m)": 576962.7153491911,
        "Argument of Periapsis(deg)": -0.009120573649269567,
        "Eccentricity": 0.0,
        "Inclination(deg)": 97.0,
        "Latitude(deg)": 82.94620849222696,
        "Longitude(deg)": -121.64030453865479,
        "Mean Anomaly(deg)": 88.86875254721599,
        "RAAN(deg)": 60.002399688302205,
        "Satellite Name": "Starlink Shell 3 1712",
        "Satellite Number": 1712,
        "Semi-Major Axis(m)": 6938478.169268562,
        "Time(s)": 230
    },
    {
        "Altitude(m)": 576967.2649420511,
        "Argument of Periapsis(deg)": -0.009517120329672592,
        "Eccentricity": 0.0,
        "Inclination(deg)": 97.0,
        "Latitude(deg)": 83.01897452134105,
        "Longitude(deg)": -126.7439791327527,
        "Mean Anomaly(deg)": 89.49422874492103,
        "RAAN(deg)": 60.00250402257622,
        "Satellite Name": "Starlink Shell 3 1712",
        "Satellite Number": 1712,
        "Semi-Major Axis(m)": 6938478.169268562,
        "Time(s)": 240
    },
    {
        "Altitude(m)": 576968.436623674,
        "Argument of Periapsis(deg)": -0.009913667010075618,
        "Eccentricity": 0.0,
        "Inclination(deg)": 97.0,
        "Latitude(deg)": 83.03690959581986,
        "Longitude(deg)": -131.9134228378039,
        "Mean Anomaly(deg)": 90.11970494262611,
        "RAAN(deg)": 60.002608356850224,
        "Satellite Name": "Starlink Shell 3 1712",
        "Satellite Number": 1712,
        "Semi-Major Axis(m)": 6938478.169268562,
        "Time(s)": 250
    },
    {
        "Altitude(m)": 576966.2297682441,
        "Argument of Periapsis(deg)": -0.010310213690478642,
        "Eccentricity": 0.0,
        "Inclination(deg)": 97.0,
        "Latitude(deg)": 82.99959246166208,
        "Longitude(deg)": -137.06870452820067,
        "Mean Anomaly(deg)": 90.74518114033114,
        "RAAN(deg)": 60.00271269112424,
        "Satellite Name": "Starlink Shell 3 1712",
        "Satellite Number": 1712,
        "Semi-Major Axis(m)": 6938478.169268562,
        "Time(s)": 260
    },
    {
        "Altitude(m)": 576960.6456522944,
        "Argument of Periapsis(deg)": -0.010706760370881667,
        "Eccentricity": 0.0,
        "Inclination(deg)": 97.0,
        "Latitude(deg)": 82.90789486097133,
        "Longitude(deg)": -142.13120170773217,
        "Mean Anomaly(deg)": 91.37065733803617,
        "RAAN(deg)": 60.00281702539824,
        "Satellite Name": "Starlink Shell 3 1712",
        "Satellite Number": 1712,
        "Semi-Major Axis(m)": 6938478.169268562,
        "Time(s)": 270
    },
    {
        "Altitude(m)": 576951.6874541051,
        "Argument of Periapsis(deg)": -0.011103307051284692,
        "Eccentricity": 0.0,
        "Inclination(deg)": 97.0,
        "Latitude(deg)": 82.76388293230933,
        "Longitude(deg)": -147.0306101259231,
        "Mean Anomaly(deg)": 91.99613353574124,
        "RAAN(deg)": 60.00292135967225,
        "Satellite Name": "Starlink Shell 3 1712",
        "Satellite Number": 1712,
        "Semi-Major Axis(m)": 6938478.169268562,
        "Time(s)": 280
    },
    {
        "Altitude(m)": 576939.3602522012,
        "Argument of Periapsis(deg)": -0.011499853731687715,
        "Eccentricity": 0.0,
        "Inclination(deg)": 97.0,
        "Latitude(deg)": 82.57059679895269,
        "Longitude(deg)": -151.71017842636448,
        "Mean Anomaly(deg)": 92.62160973344628,
        "RAAN(deg)": 60.003025693946256,
        "Satellite Name": "Starlink Shell 3 1712",
        "Satellite Number": 1712,
        "Semi-Major Axis(m)": 6938478.169268562,
        "Time(s)": 290
    },
    {
        "Altitude(m)": 576923.6710229956,
        "Argument of Periapsis(deg)": -0.011896400412090741,
        "Eccentricity": 0.0,
        "Inclination(deg)": 97.0,
        "Latitude(deg)": 82.33175965936266,
        "Longitude(deg)": -156.12935117300796,
        "Mean Anomaly(deg)": 93.2470859311513,
        "RAAN(deg)": 60.00313002822027,
        "Satellite Name": "Starlink Shell 3 1712",
        "Satellite Number": 1712,
        "Semi-Major Axis(m)": 6938478.169268562,
        "Time(s)": 300
    },
    {
        "Altitude(m)": 576904.6286374838,
        "Argument of Periapsis(deg)": -0.012292947092493765,
        "Eccentricity": 0.0,
        "Inclination(deg)": 97.0,
        "Latitude(deg)": 82.05147424301379,
        "Longitude(deg)": -160.26384422871402,
        "Mean Anomaly(deg)": 93.87256212885634,
        "RAAN(deg)": 60.003234362494275,
        "Satellite Name": "Starlink Shell 3 1712",
        "Satellite Number": 1712,
        "Semi-Major Axis(m)": 6938478.169268562,
        "Time(s)": 310
    },
    {
        "Altitude(m)": 576882.2438571155,
        "Argument of Periapsis(deg)": -0.012689493772896788,
        "Eccentricity": 0.0,
        "Inclination(deg)": 97.0,
        "Latitude(deg)": 81.73395301524687,
        "Longitude(deg)": -164.10379630610234,
        "Mean Anomaly(deg)": 94.4980383265614,
        "RAAN(deg)": 60.00333869676829,
        "Satellite Name": "Starlink Shell 3 1712",
        "Satellite Number": 1712,
        "Semi-Major Axis(m)": 6938478.169268562,
        "Time(s)": 320
    },
    {
        "Altitude(m)": 576856.5293287343,
        "Argument of Periapsis(deg)": -0.013086040453299813,
        "Eccentricity": 0.0,
        "Inclination(deg)": 97.0,
        "Latitude(deg)": 81.3833082649388,
        "Longitude(deg)": -167.650877394217,
        "Mean Anomaly(deg)": 95.12351452426645,
        "RAAN(deg)": 60.00344303104229,
        "Satellite Name": "Starlink Shell 3 1712",
        "Satellite Number": 1712,
        "Semi-Major Axis(m)": 6938478.169268562,
        "Time(s)": 330
    },
    {
        "Altitude(m)": 576827.4995786498,
        "Argument of Periapsis(deg)": -0.01348258713370284,
        "Eccentricity": 0.0,
        "Inclination(deg)": 97.0,
        "Latitude(deg)": 81.0034087504294,
        "Longitude(deg)": -170.91513738614802,
        "Mean Anomaly(deg)": 95.74899072197147,
        "RAAN(deg)": 60.0035473653163,
        "Satellite Name": "Starlink Shell 3 1712",
        "Satellite Number": 1712,
        "Semi-Major Axis(m)": 6938478.169268562,
        "Time(s)": 340
    },
    {
        "Altitude(m)": 576795.1710058283,
        "Argument of Periapsis(deg)": -0.013879133814105863,
        "Eccentricity": 0.0,
        "Inclination(deg)": 97.0,
        "Latitude(deg)": 80.59779627658176,
        "Longitude(deg)": -173.91211730485387,
        "Mean Anomaly(deg)": 96.37446691967651,
        "RAAN(deg)": 60.00365169959031,
        "Satellite Name": "Starlink Shell 3 1712",
        "Satellite Number": 1712,
        "Semi-Major Axis(m)": 6938478.169268562,
        "Time(s)": 350
    },
    {
        "Altitude(m)": 576759.5618742009,
        "Argument of Periapsis(deg)": -0.01427568049450889,
        "Eccentricity": 0.0,
        "Inclination(deg)": 97.0,
        "Latitude(deg)": 80.16964926264254,
        "Longitude(deg)": -176.660484715328,
        "Mean Anomaly(deg)": 96.9999431173816,
        "RAAN(deg)": 60.00375603386432,
        "Satellite Name": "Starlink Shell 3 1712",
        "Satellite Number": 1712,
        "Semi-Major Axis(m)": 6938478.169268562,
        "Time(s)": 360
    },
    {
        "Altitude(m)": 576720.6923040814,
        "Argument of Periapsis(deg)": -0.014672227174911913,
        "Eccentricity": 0.0,
        "Inclination(deg)": 97.0,
        "Latitude(deg)": 79.72177928524839,
        "Longitude(deg)": -179.18025779962733,
        "Mean Anomaly(deg)": 97.62541931508665,
        "RAAN(deg)": 60.00386036813833,
        "Satellite Name": "Starlink Shell 3 1712",
        "Satellite Number": 1712,
        "Semi-Major Axis(m)": 6938478.169268562,
        "Time(s)": 370
    }
]